[{"OBJECT_NAME":"STARLINK-35418","OBJECT_ID":"2025-223AB","EPOCH":"2026-03-09T21:45:51.479712","MEAN_MOTION":15.30212079,"ECCENTRICITY":6.969e-5,"INCLINATION":53.1579,"RA_OF_ASC_NODE":293.5347,"ARG_OF_PERICENTER":79.5938,"MEAN_ANOMALY":280.5142,"EPHEMERIS_TYPE":0,"CLASSIFICATION_TYPE":"U","NORAD_CAT_ID":65879,"ELEMENT_SET_NO":999,"REV_AT_EPOCH":2423,"BSTAR":0.001027863,"MEAN_MOTION_DOT":0.00030218,"MEAN_MOTION_DDOT":0},{"OBJECT_NAME":"CZ-6A R\/B","OBJECT_ID":"2023-168B","EPOCH":"2026-03-09T21:13:08.722272","MEAN_MOTION":15.16100791,"ECCENTRICITY":0.00607667,"INCLINATION":97.7542,"RA_OF_ASC_NODE":104.7688,"ARG_OF_PERICENTER":339.2379,"MEAN_ANOMALY":20.6386,"EPHEMERIS_TYPE":0,"CLASSIFICATION_TYPE":"U","NORAD_CAT_ID":58200,"ELEMENT_SET_NO":999,"REV_AT_EPOCH":12979,"BSTAR":0.00029693841,"MEAN_MOTION_DOT":5.919e-5,"MEAN_MOTION_DDOT":0}]
